[
    {
        "Altitude(m)": 707219.7957397527,
        "Argument of Periapsis(deg)": 0.007973084830638947,
        "Eccentricity": 0.0,
        "Inclination(deg)": 45.0,
        "Latitude(deg)": -17.160078567334924,
        "Longitude(deg)": -42.646221929288735,
        "Mean Anomaly(deg)": -155.56314834676343,
        "RAAN(deg)": 219.99247364097926,
        "Satellite Name": "Constellation 1 980",
        "Satellite Number": 980,
        "Semi-Major Axis(m)": 7083131.272910544,
        "Time(s)": 133
    },
    {
        "Altitude(m)": 707232.2390917011,
        "Argument of Periapsis(deg)": 0.008033032836884352,
        "Eccentricity": 0.0,
        "Inclination(deg)": 45.0,
        "Latitude(deg)": -17.20112960472359,
        "Longitude(deg)": -42.60344457651971,
        "Mean Anomaly(deg)": -155.50244720651355,
        "RAAN(deg)": 219.99241705181367,
        "Satellite Name": "Constellation 1 980",
        "Satellite Number": 980,
        "Semi-Major Axis(m)": 7083131.272910544,
        "Time(s)": 134
    },
    {
        "Altitude(m)": 707244.6933914298,
        "Argument of Periapsis(deg)": 0.008092980843129758,
        "Eccentricity": 0.0,
        "Inclination(deg)": 45.0,
        "Latitude(deg)": -17.24216947333821,
        "Longitude(deg)": -42.56064667213768,
        "Mean Anomaly(deg)": -155.44174606626368,
        "RAAN(deg)": 219.9923604626481,
        "Satellite Name": "Constellation 1 980",
        "Satellite Number": 980,
        "Semi-Major Axis(m)": 7083131.272910544,
        "Time(s)": 135
    },
    {
        "Altitude(m)": 707257.1585999251,
        "Argument of Periapsis(deg)": 0.008152928849375162,
        "Eccentricity": 0.0,
        "Inclination(deg)": 45.0,
        "Latitude(deg)": -17.28319814054301,
        "Longitude(deg)": -42.51782816033069,
        "Mean Anomaly(deg)": -155.38104492601371,
        "RAAN(deg)": 219.99230387348254,
        "Satellite Name": "Constellation 1 980",
        "Satellite Number": 980,
        "Semi-Major Axis(m)": 7083131.272910544,
        "Time(s)": 136
    },
    {
        "Altitude(m)": 707269.634678102,
        "Argument of Periapsis(deg)": 0.008212876855620568,
        "Eccentricity": 0.0,
        "Inclination(deg)": 45.0,
        "Latitude(deg)": -17.324215573662116,
        "Longitude(deg)": -42.47498898525683,
        "Mean Anomaly(deg)": -155.32034378576387,
        "RAAN(deg)": 219.992247284317,
        "Satellite Name": "Constellation 1 980",
        "Satellite Number": 980,
        "Semi-Major Axis(m)": 7083131.272910544,
        "Time(s)": 137
    },
    {
        "Altitude(m)": 707282.1215868206,
        "Argument of Periapsis(deg)": 0.008272824861865974,
        "Eccentricity": 0.0,
        "Inclination(deg)": 45.0,
        "Latitude(deg)": -17.365221739979663,
        "Longitude(deg)": -42.432129091043976,
        "Mean Anomaly(deg)": -155.259642645514,
        "RAAN(deg)": 219.9921906951514,
        "Satellite Name": "Constellation 1 980",
        "Satellite Number": 980,
        "Semi-Major Axis(m)": 7083131.272910544,
        "Time(s)": 138
    },
    {
        "Altitude(m)": 707294.6192868903,
        "Argument of Periapsis(deg)": 0.00833277286811138,
        "Eccentricity": 0.0,
        "Inclination(deg)": 45.0,
        "Latitude(deg)": -17.406216606739537,
        "Longitude(deg)": -42.38924842178962,
        "Mean Anomaly(deg)": -155.19894150526403,
        "RAAN(deg)": 219.99213410598585,
        "Satellite Name": "Constellation 1 980",
        "Satellite Number": 980,
        "Semi-Major Axis(m)": 7083131.272910544,
        "Time(s)": 139
    },
    {
        "Altitude(m)": 707307.1277390638,
        "Argument of Periapsis(deg)": 0.008392720874356788,
        "Eccentricity": 0.0,
        "Inclination(deg)": 45.0,
        "Latitude(deg)": -17.447200141145043,
        "Longitude(deg)": -42.34634692156154,
        "Mean Anomaly(deg)": -155.13824036501418,
        "RAAN(deg)": 219.99207751682025,
        "Satellite Name": "Constellation 1 980",
        "Satellite Number": 980,
        "Semi-Major Axis(m)": 7083131.272910544,
        "Time(s)": 140
    },
    {
        "Altitude(m)": 707319.6469040317,
        "Argument of Periapsis(deg)": 0.008452668880602192,
        "Eccentricity": 0.0,
        "Inclination(deg)": 45.0,
        "Latitude(deg)": -17.48817231035953,
        "Longitude(deg)": -42.30342470249406,
        "Mean Anomaly(deg)": -155.0775392247642,
        "RAAN(deg)": 219.9920209276547,
        "Satellite Name": "Constellation 1 980",
        "Satellite Number": 980,
        "Semi-Major Axis(m)": 7083131.272910544,
        "Time(s)": 141
    },
    {
        "Altitude(m)": 707332.1767424237,
        "Argument of Periapsis(deg)": 0.008512616886847598,
        "Eccentricity": 0.0,
        "Inclination(deg)": 45.0,
        "Latitude(deg)": -17.52913308150475,
        "Longitude(deg)": -42.260481372400605,
        "Mean Anomaly(deg)": -155.01683808451435,
        "RAAN(deg)": 219.99196433848914,
        "Satellite Name": "Constellation 1 980",
        "Satellite Number": 980,
        "Semi-Major Axis(m)": 7083131.272910544,
        "Time(s)": 142
    },
    {
        "Altitude(m)": 707344.7172148327,
        "Argument of Periapsis(deg)": 0.008572564893093004,
        "Eccentricity": 0.0,
        "Inclination(deg)": 45.0,
        "Latitude(deg)": -17.570082421662725,
        "Longitude(deg)": -42.217517043355315,
        "Mean Anomaly(deg)": -154.95613694426441,
        "RAAN(deg)": 219.99190774932356,
        "Satellite Name": "Constellation 1 980",
        "Satellite Number": 980,
        "Semi-Major Axis(m)": 7083131.272910544,
        "Time(s)": 143
    },
    {
        "Altitude(m)": 707357.2682817793,
        "Argument of Periapsis(deg)": 0.008632512899338408,
        "Eccentricity": 0.0,
        "Inclination(deg)": 45.0,
        "Latitude(deg)": -17.611020297874184,
        "Longitude(deg)": -42.174531659305586,
        "Mean Anomaly(deg)": -154.89543580401454,
        "RAAN(deg)": 219.991851160158,
        "Satellite Name": "Constellation 1 980",
        "Satellite Number": 980,
        "Semi-Major Axis(m)": 7083131.272910544,
        "Time(s)": 144
    },
    {
        "Altitude(m)": 707369.8299037337,
        "Argument of Periapsis(deg)": 0.008692460905583814,
        "Eccentricity": 0.0,
        "Inclination(deg)": 45.0,
        "Latitude(deg)": -17.651946677139172,
        "Longitude(deg)": -42.131525164168316,
        "Mean Anomaly(deg)": -154.83473466376464,
        "RAAN(deg)": 219.99179457099245,
        "Satellite Name": "Constellation 1 980",
        "Satellite Number": 980,
        "Semi-Major Axis(m)": 7083131.272910544,
        "Time(s)": 145
    },
    {
        "Altitude(m)": 707382.4020411085,
        "Argument of Periapsis(deg)": 0.00875240891182922,
        "Eccentricity": 0.0,
        "Inclination(deg)": 45.0,
        "Latitude(deg)": -17.69286152641642,
        "Longitude(deg)": -42.088497501830844,
        "Mean Anomaly(deg)": -154.77403352351476,
        "RAAN(deg)": 219.99173798182684,
        "Satellite Name": "Constellation 1 980",
        "Satellite Number": 980,
        "Semi-Major Axis(m)": 7083131.272910544,
        "Time(s)": 146
    },
    {
        "Altitude(m)": 707394.984654262,
        "Argument of Periapsis(deg)": 0.008812356918074627,
        "Eccentricity": 0.0,
        "Inclination(deg)": 45.0,
        "Latitude(deg)": -17.7337648126237,
        "Longitude(deg)": -42.04544861615014,
        "Mean Anomaly(deg)": -154.71333238326488,
        "RAAN(deg)": 219.9916813926613,
        "Satellite Name": "Constellation 1 980",
        "Satellite Number": 980,
        "Semi-Major Axis(m)": 7083131.272910544,
        "Time(s)": 147
    },
    {
        "Altitude(m)": 707407.577703501,
        "Argument of Periapsis(deg)": 0.008872304924320031,
        "Eccentricity": 0.0,
        "Inclination(deg)": 45.0,
        "Latitude(deg)": -17.77465650263766,
        "Longitude(deg)": -42.00237861905045,
        "Mean Anomaly(deg)": -154.65263124301498,
        "RAAN(deg)": 219.9916248034957,
        "Satellite Name": "Constellation 1 980",
        "Satellite Number": 980,
        "Semi-Major Axis(m)": 7083131.272910544,
        "Time(s)": 148
    },
    {
        "Altitude(m)": 707420.1811490708,
        "Argument of Periapsis(deg)": 0.008932252930565437,
        "Eccentricity": 0.0,
        "Inclination(deg)": 45.0,
        "Latitude(deg)": -17.81553656329295,
        "Longitude(deg)": -41.95928711813458,
        "Mean Anomaly(deg)": -154.59193010276505,
        "RAAN(deg)": 219.99156821433016,
        "Satellite Name": "Constellation 1 980",
        "Satellite Number": 980,
        "Semi-Major Axis(m)": 7083131.272910544,
        "Time(s)": 149
    },
    {
        "Altitude(m)": 707432.7949511729,
        "Argument of Periapsis(deg)": 0.008992200936810843,
        "Eccentricity": 0.0,
        "Inclination(deg)": 45.0,
        "Latitude(deg)": -17.85640496138321,
        "Longitude(deg)": -41.9161742252669,
        "Mean Anomaly(deg)": -154.53122896251517,
        "RAAN(deg)": 219.9915116251646,
        "Satellite Name": "Constellation 1 980",
        "Satellite Number": 980,
        "Semi-Major Axis(m)": 7083131.272910544,
        "Time(s)": 150
    },
    {
        "Altitude(m)": 707445.4190699363,
        "Argument of Periapsis(deg)": 0.009052148943056249,
        "Eccentricity": 0.0,
        "Inclination(deg)": 45.0,
        "Latitude(deg)": -17.89726166366046,
        "Longitude(deg)": -41.87303988418457,
        "Mean Anomaly(deg)": -154.47052782226524,
        "RAAN(deg)": 219.991455035999,
        "Satellite Name": "Constellation 1 980",
        "Satellite Number": 980,
        "Semi-Major Axis(m)": 7083131.272910544,
        "Time(s)": 151
    }
]